[{"OBJECT_NAME":"TOMORROW-S1","OBJECT_ID":"2024-149M","EPOCH":"2026-03-07T10:29:51.664128","MEAN_MOTION":15.31149178,"ECCENTRICITY":0.0001599,"INCLINATION":97.3781,"RA_OF_ASC_NODE":147.3255,"ARG_OF_PERICENTER":214.6121,"MEAN_ANOMALY":145.5016,"EPHEMERIS_TYPE":0,"CLASSIFICATION_TYPE":"U","NORAD_CAT_ID":60479,"ELEMENT_SET_NO":999,"REV_AT_EPOCH":8651,"BSTAR":0.00041225238,"MEAN_MOTION_DOT":0.00012335,"MEAN_MOTION_DDOT":0},{"OBJECT_NAME":"FLOCK 4BE-18","OBJECT_ID":"2024-149N","EPOCH":"2026-03-07T11:10:38.657280","MEAN_MOTION":15.38170927,"ECCENTRICITY":0.00031871,"INCLINATION":97.3772,"RA_OF_ASC_NODE":149.3825,"ARG_OF_PERICENTER":249.6107,"MEAN_ANOMALY":110.4796,"EPHEMERIS_TYPE":0,"CLASSIFICATION_TYPE":"U","NORAD_CAT_ID":60480,"ELEMENT_SET_NO":999,"REV_AT_EPOCH":8665,"BSTAR":0.00079122146,"MEAN_MOTION_DOT":0.00029741,"MEAN_MOTION_DDOT":0},{"OBJECT_NAME":"FLOCK 4BE-7","OBJECT_ID":"2024-149P","EPOCH":"2026-03-07T11:27:15.252768","MEAN_MOTION":15.36185085,"ECCENTRICITY":0.00021447,"INCLINATION":97.3806,"RA_OF_ASC_NODE":148.9876,"ARG_OF_PERICENTER":241.2934,"MEAN_ANOMALY":118.8095,"EPHEMERIS_TYPE":0,"CLASSIFICATION_TYPE":"U","NORAD_CAT_ID":60481,"ELEMENT_SET_NO":999,"REV_AT_EPOCH":8661,"BSTAR":0.00067355531,"MEAN_MOTION_DOT":0.00023715,"MEAN_MOTION_DDOT":0},{"OBJECT_NAME":"FLOCK 4BE-16","OBJECT_ID":"2024-149R","EPOCH":"2026-03-07T04:55:41.491776","MEAN_MOTION":15.68168477,"ECCENTRICITY":0.00065645,"INCLINATION":97.3717,"RA_OF_ASC_NODE":151.6764,"ARG_OF_PERICENTER":238.1127,"MEAN_ANOMALY":121.9496,"EPHEMERIS_TYPE":0,"CLASSIFICATION_TYPE":"U","NORAD_CAT_ID":60483,"ELEMENT_SET_NO":999,"REV_AT_EPOCH":8677,"BSTAR":0.0017829853,"MEAN_MOTION_DOT":0.00203079,"MEAN_MOTION_DDOT":0},{"OBJECT_NAME":"FLOCK 4BE-26","OBJECT_ID":"2024-149S","EPOCH":"2026-03-07T11:42:29.104704","MEAN_MOTION":15.43777905,"ECCENTRICITY":0.00059352,"INCLINATION":97.376,"RA_OF_ASC_NODE":149.3093,"ARG_OF_PERICENTER":247.3261,"MEAN_ANOMALY":112.7359,"EPHEMERIS_TYPE":0,"CLASSIFICATION_TYPE":"U","NORAD_CAT_ID":60484,"ELEMENT_SET_NO":999,"REV_AT_EPOCH":8665,"BSTAR":0.0028610204,"MEAN_MOTION_DOT":0.00131432,"MEAN_MOTION_DDOT":0},{"OBJECT_NAME":"TOMORROW-S2","OBJECT_ID":"2024-149T","EPOCH":"2026-03-07T11:07:52.647456","MEAN_MOTION":15.30631858,"ECCENTRICITY":0.00015111,"INCLINATION":97.3864,"RA_OF_ASC_NODE":147.7613,"ARG_OF_PERICENTER":250.9874,"MEAN_ANOMALY":109.1203,"EPHEMERIS_TYPE":0,"CLASSIFICATION_TYPE":"U","NORAD_CAT_ID":60485,"ELEMENT_SET_NO":999,"REV_AT_EPOCH":8651,"BSTAR":0.00036041449,"MEAN_MOTION_DOT":0.000106,"MEAN_MOTION_DDOT":0},{"OBJECT_NAME":"FLOCK 4BE-36","OBJECT_ID":"2024-149U","EPOCH":"2026-03-07T04:06:11.520288","MEAN_MOTION":15.39017108,"ECCENTRICITY":0.0002807,"INCLINATION":97.3786,"RA_OF_ASC_NODE":149.629,"ARG_OF_PERICENTER":264.8346,"MEAN_ANOMALY":95.2579,"EPHEMERIS_TYPE":0,"CLASSIFICATION_TYPE":"U","NORAD_CAT_ID":60486,"ELEMENT_SET_NO":999,"REV_AT_EPOCH":8664,"BSTAR":0.00062672865,"MEAN_MOTION_DOT":0.0002418,"MEAN_MOTION_DDOT":0},{"OBJECT_NAME":"FLOCK 4BE-25","OBJECT_ID":"2024-149V","EPOCH":"2026-03-07T03:57:36.454464","MEAN_MOTION":15.35894404,"ECCENTRICITY":0.00014475,"INCLINATION":97.3843,"RA_OF_ASC_NODE":148.8235,"ARG_OF_PERICENTER":228.0696,"MEAN_ANOMALY":132.0425,"EPHEMERIS_TYPE":0,"CLASSIFICATION_TYPE":"U","NORAD_CAT_ID":60487,"ELEMENT_SET_NO":999,"REV_AT_EPOCH":8656,"BSTAR":0.00052442615,"MEAN_MOTION_DOT":0.00018262,"MEAN_MOTION_DDOT":0},{"OBJECT_NAME":"FLOCK 4BE-31","OBJECT_ID":"2024-149W","EPOCH":"2026-03-07T11:11:14.963424","MEAN_MOTION":15.39832381,"ECCENTRICITY":0.00017849,"INCLINATION":97.3849,"RA_OF_ASC_NODE":150.5457,"ARG_OF_PERICENTER":252.3797,"MEAN_ANOMALY":107.7254,"EPHEMERIS_TYPE":0,"CLASSIFICATION_TYPE":"U","NORAD_CAT_ID":60488,"ELEMENT_SET_NO":999,"REV_AT_EPOCH":8670,"BSTAR":0.00084297167,"MEAN_MOTION_DOT":0.00033469,"MEAN_MOTION_DDOT":0},{"OBJECT_NAME":"FLOCK 4BE-20","OBJECT_ID":"2024-149X","EPOCH":"2026-03-07T11:13:49.082016","MEAN_MOTION":15.35187472,"ECCENTRICITY":0.00025879,"INCLINATION":97.3747,"RA_OF_ASC_NODE":148.2613,"ARG_OF_PERICENTER":252.899,"MEAN_ANOMALY":107.197,"EPHEMERIS_TYPE":0,"CLASSIFICATION_TYPE":"U","NORAD_CAT_ID":60489,"ELEMENT_SET_NO":999,"REV_AT_EPOCH":8659,"BSTAR":0.00060206188,"MEAN_MOTION_DOT":0.00020516,"MEAN_MOTION_DDOT":0},{"OBJECT_NAME":"FLOCK 4BE-23","OBJECT_ID":"2024-149Y","EPOCH":"2026-03-07T04:09:35.530560","MEAN_MOTION":15.34813634,"ECCENTRICITY":0.00021273,"INCLINATION":97.3825,"RA_OF_ASC_NODE":148.287,"ARG_OF_PERICENTER":267.1541,"MEAN_ANOMALY":92.9459,"EPHEMERIS_TYPE":0,"CLASSIFICATION_TYPE":"U","NORAD_CAT_ID":60490,"ELEMENT_SET_NO":999,"REV_AT_EPOCH":8653,"BSTAR":0.00051031752,"MEAN_MOTION_DOT":0.00017164,"MEAN_MOTION_DDOT":0},{"OBJECT_NAME":"FLOCK 4BE-15","OBJECT_ID":"2024-149Z","EPOCH":"2026-03-07T04:13:45.733728","MEAN_MOTION":15.39893227,"ECCENTRICITY":0.00030347,"INCLINATION":97.3765,"RA_OF_ASC_NODE":149.3251,"ARG_OF_PERICENTER":315.5766,"MEAN_ANOMALY":44.5237,"EPHEMERIS_TYPE":0,"CLASSIFICATION_TYPE":"U","NORAD_CAT_ID":60491,"ELEMENT_SET_NO":999,"REV_AT_EPOCH":8663,"BSTAR":0.0020905349,"MEAN_MOTION_DOT":0.00083846,"MEAN_MOTION_DDOT":0},{"OBJECT_NAME":"FLOCK 4BE-17","OBJECT_ID":"2024-149AA","EPOCH":"2026-03-07T05:16:55.087392","MEAN_MOTION":15.36538004,"ECCENTRICITY":0.0002214,"INCLINATION":97.3817,"RA_OF_ASC_NODE":149.0072,"ARG_OF_PERICENTER":244.6332,"MEAN_ANOMALY":115.4683,"EPHEMERIS_TYPE":0,"CLASSIFICATION_TYPE":"U","NORAD_CAT_ID":60492,"ELEMENT_SET_NO":999,"REV_AT_EPOCH":8658,"BSTAR":0.0006951,"MEAN_MOTION_DOT":0.00024758,"MEAN_MOTION_DDOT":0},{"OBJECT_NAME":"NUSAT-50 (NANCY ROMAN)","OBJECT_ID":"2024-149AB","EPOCH":"2026-03-07T04:27:20.833920","MEAN_MOTION":15.29631561,"ECCENTRICITY":0.00023987,"INCLINATION":97.382,"RA_OF_ASC_NODE":148.1698,"ARG_OF_PERICENTER":251.4199,"MEAN_ANOMALY":108.6781,"EPHEMERIS_TYPE":0,"CLASSIFICATION_TYPE":"U","NORAD_CAT_ID":60493,"ELEMENT_SET_NO":999,"REV_AT_EPOCH":8653,"BSTAR":0.00047403893,"MEAN_MOTION_DOT":0.00013547,"MEAN_MOTION_DDOT":0},{"OBJECT_NAME":"FLOCK 4BE-22","OBJECT_ID":"2024-149AC","EPOCH":"2026-03-07T11:34:26.375808","MEAN_MOTION":15.37624133,"ECCENTRICITY":0.00027737,"INCLINATION":97.3776,"RA_OF_ASC_NODE":149.3199,"ARG_OF_PERICENTER":269.692,"MEAN_ANOMALY":90.4007,"EPHEMERIS_TYPE":0,"CLASSIFICATION_TYPE":"U","NORAD_CAT_ID":60494,"ELEMENT_SET_NO":999,"REV_AT_EPOCH":8665,"BSTAR":0.00076312899,"MEAN_MOTION_DOT":0.00028171,"MEAN_MOTION_DDOT":0},{"OBJECT_NAME":"FLOCK 4BE-34","OBJECT_ID":"2024-149AD","EPOCH":"2026-03-07T12:06:44.616384","MEAN_MOTION":15.37884131,"ECCENTRICITY":0.00023518,"INCLINATION":97.3821,"RA_OF_ASC_NODE":150.0891,"ARG_OF_PERICENTER":272.1838,"MEAN_ANOMALY":87.9137,"EPHEMERIS_TYPE":0,"CLASSIFICATION_TYPE":"U","NORAD_CAT_ID":60495,"ELEMENT_SET_NO":999,"REV_AT_EPOCH":8668,"BSTAR":0.00061272573,"MEAN_MOTION_DOT":0.00022777,"MEAN_MOTION_DDOT":0}]
