TOMORROW-S1             
1 60479U 24149M   26066.43740352  .00012335  00000+0  41225-3 0  9994
2 60479  97.3781 147.3255 0001599 214.6121 145.5016 15.31149178 86513
FLOCK 4BE-18            
1 60480U 24149N   26066.46572520  .00029741  00000+0  79122-3 0  9995
2 60480  97.3772 149.3825 0003187 249.6107 110.4796 15.38170927 86651
FLOCK 4BE-7             
1 60481U 24149P   26066.47725987  .00023715  00000+0  67356-3 0  9995
2 60481  97.3806 148.9876 0002144 241.2934 118.8095 15.36185085 86618
FLOCK 4BE-16            
1 60483U 24149R   26066.20534134  .00203079  00000+0  17830-2 0  9994
2 60483  97.3717 151.6764 0006564 238.1127 121.9496 15.68168477 86775
FLOCK 4BE-26            
1 60484U 24149S   26066.48783686  .00131432  00000+0  28610-2 0  9994
2 60484  97.3760 149.3093 0005935 247.3261 112.7359 15.43777905 86653
TOMORROW-S2             
1 60485U 24149T   26066.46380379  .00010600  00000+0  36041-3 0  9996
2 60485  97.3864 147.7613 0001511 250.9874 109.1203 15.30631858 86510
FLOCK 4BE-36            
1 60486U 24149U   26066.17096667  .00024180  00000+0  62673-3 0  9997
2 60486  97.3786 149.6290 0002807 264.8346  95.2579 15.39017108 86643
FLOCK 4BE-25            
1 60487U 24149V   26066.16500526  .00018262  00000+0  52443-3 0  9999
2 60487  97.3843 148.8235 0001447 228.0696 132.0425 15.35894404 86566
FLOCK 4BE-31            
1 60488U 24149W   26066.46614541  .00033469  00000+0  84297-3 0  9994
2 60488  97.3849 150.5457 0001784 252.3797 107.7254 15.39832381 86700
FLOCK 4BE-20            
1 60489U 24149X   26066.46792919  .00020516  00000+0  60206-3 0  9994
2 60489  97.3747 148.2613 0002587 252.8990 107.1970 15.35187472 86594
FLOCK 4BE-23            
1 60490U 24149Y   26066.17332790  .00017164  00000+0  51032-3 0  9993
2 60490  97.3825 148.2870 0002127 267.1541  92.9459 15.34813634 86531
FLOCK 4BE-15            
1 60491U 24149Z   26066.17622377  .00083846  00000+0  20905-2 0  9991
2 60491  97.3765 149.3251 0003034 315.5766  44.5237 15.39893227 86634
FLOCK 4BE-17            
1 60492U 24149AA  26066.22008203  .00024758  00000+0  69510-3 0  9997
2 60492  97.3817 149.0072 0002214 244.6332 115.4683 15.36538004 86584
NUSAT-50 (NANCY ROMAN)  
1 60493U 24149AB  26066.18565780  .00013547  00000+0  47404-3 0  9993
2 60493  97.3820 148.1698 0002398 251.4199 108.6781 15.29631561 86535
FLOCK 4BE-22            
1 60494U 24149AC  26066.48224972  .00028171  00000+0  76313-3 0  9992
2 60494  97.3776 149.3199 0002773 269.6920  90.4007 15.37624133 86653
FLOCK 4BE-34            
1 60495U 24149AD  26066.50468306  .00022777  00000+0  61273-3 0  9992
2 60495  97.3821 150.0891 0002351 272.1838  87.9137 15.37884131 86686
